start=new Date('2022-10-29T00:00:00.000Z').valueOf();
sats=[{"SITE":"AFETR","TIME_SYSTEM":"UTC","COUNTRY_CODE":"US","CENTER_NAME":"EARTH","OBJECT_NAME":"STARLINK-1893","MEAN_ELEMENT_THEORY":"SGP4","SEMIMAJOR_AXIS":"6925.332","LAUNCH_DATE":"2020-10-24","TLE_LINE1":"1 46786U 20074AZ  22301.45735091  .00000999  00000-0  85917-4 0  9997","FILE":"3636776","MEAN_MOTION_DOT":"0.00000999","RA_OF_ASC_NODE":"45.3786","APOAPSIS":"548.052","PERIAPSIS":"546.343","ELEMENT_SET_NO":"999","BSTAR":"0.00008591700000","INCLINATION":"53.0552","GP_ID":"216374009","DECAY_DATE":null,"TLE_LINE2":"2 46786  53.0552  45.3786 0001234  95.1591 264.9539 15.06405256111977","MEAN_MOTION_DDOT":"0.0000000000000","ECCENTRICITY":"0.00012340","OBJECT_ID":"2020-074AZ","REF_FRAME":"TEME","RCS_SIZE":"LARGE","EPHEMERIS_TYPE":"0","REV_AT_EPOCH":"11197","EPOCH":"2022-10-28T10:58:35.118624","NORAD_CAT_ID":"46786","MEAN_ANOMALY":"264.9539","ARG_OF_PERICENTER":"95.1591","OBJECT_TYPE":"PAYLOAD","CLASSIFICATION_TYPE":"U","MEAN_MOTION":"15.06405256","PERIOD":"95.592"},{"RCS_SIZE":"LARGE","REF_FRAME":"TEME","OBJECT_ID":"2020-074BA","ECCENTRICITY":"0.00011210","MEAN_MOTION_DDOT":"0.0000000000000","TLE_LINE2":"2 46787  53.0584  44.8096 0001121  87.6732 272.4386 15.06406142111990","GP_ID":"216406760","DECAY_DATE":null,"BSTAR":"0.00003031600000","INCLINATION":"53.0584","ELEMENT_SET_NO":"999","PERIAPSIS":"546.418","PERIOD":"95.592","CLASSIFICATION_TYPE":"U","MEAN_MOTION":"15.06406142","OBJECT_TYPE":"PAYLOAD","ARG_OF_PERICENTER":"87.6732","MEAN_ANOMALY":"272.4386","EPOCH":"2022-10-28T13:59:03.867360","NORAD_CAT_ID":"46787","REV_AT_EPOCH":"11199","EPHEMERIS_TYPE":"0","COUNTRY_CODE":"US","TIME_SYSTEM":"UTC","SITE":"AFETR","APOAPSIS":"547.971","RA_OF_ASC_NODE":"44.8096","MEAN_MOTION_DOT":"0.00000170","FILE":"3637111","TLE_LINE1":"1 46787U 20074BA  22301.58268365  .00000170  00000-0  30316-4 0  9991","LAUNCH_DATE":"2020-10-24","SEMIMAJOR_AXIS":"6925.330","OBJECT_NAME":"STARLINK-1899","MEAN_ELEMENT_THEORY":"SGP4","CENTER_NAME":"EARTH"},{"MEAN_MOTION":"15.06408884","CLASSIFICATION_TYPE":"U","OBJECT_TYPE":"PAYLOAD","PERIOD":"95.592","EPHEMERIS_TYPE":"0","REV_AT_EPOCH":"11201","MEAN_ANOMALY":"286.9003","EPOCH":"2022-10-28T16:59:31.061760","NORAD_CAT_ID":"46788","ARG_OF_PERICENTER":"73.2139","ECCENTRICITY":"0.00014000","TLE_LINE2":"2 46788  53.0553  44.2390 0001400  73.2139 286.9003 15.06408884112015","MEAN_MOTION_DDOT":"0.0000000000000","RCS_SIZE":"LARGE","REF_FRAME":"TEME","OBJECT_ID":"2020-074BB","BSTAR":"0.00013530000000","INCLINATION":"53.0553","ELEMENT_SET_NO":"999","PERIAPSIS":"546.217","GP_ID":"216407010","DECAY_DATE":null,"FILE":"3637111","TLE_LINE1":"1 46788U 20074BB  22301.70799840  .00001735  00000-0  13530-3 0  9999","LAUNCH_DATE":"2020-10-24","APOAPSIS":"548.156","RA_OF_ASC_NODE":"44.2390","MEAN_MOTION_DOT":"0.00001735","CENTER_NAME":"EARTH","SEMIMAJOR_AXIS":"6925.321","OBJECT_NAME":"STARLINK-1929","MEAN_ELEMENT_THEORY":"SGP4","COUNTRY_CODE":"US","TIME_SYSTEM":"UTC","SITE":"AFETR"},{"CLASSIFICATION_TYPE":"U","MEAN_MOTION":"15.06410012","OBJECT_TYPE":"PAYLOAD","PERIOD":"95.592","EPHEMERIS_TYPE":"0","REV_AT_EPOCH":"11158","EPOCH":"2022-10-28T15:57:11.057184","ARG_OF_PERICENTER":"77.1693","MEAN_ANOMALY":"282.9456","NORAD_CAT_ID":"46789","ECCENTRICITY":"0.00014350","MEAN_MOTION_DDOT":"0.0000000000000","TLE_LINE2":"2 46789  53.0551  74.6070 0001435  77.1693 282.9456 15.06410012111587","RCS_SIZE":"LARGE","REF_FRAME":"TEME","OBJECT_ID":"2020-074BC","INCLINATION":"53.0551","BSTAR":"0.00014502000000","ELEMENT_SET_NO":"999","PERIAPSIS":"546.189","DECAY_DATE":null,"GP_ID":"216407262","FILE":"3637111","TLE_LINE1":"1 46789U 20074BC  22301.66471131  .00001880  00000-0  14502-3 0  9996","LAUNCH_DATE":"2020-10-24","APOAPSIS":"548.177","RA_OF_ASC_NODE":"74.6070","MEAN_MOTION_DOT":"0.00001880","CENTER_NAME":"EARTH","SEMIMAJOR_AXIS":"6925.318","MEAN_ELEMENT_THEORY":"SGP4","OBJECT_NAME":"STARLINK-1930","COUNTRY_CODE":"US","TIME_SYSTEM":"UTC","SITE":"AFETR"},{"COUNTRY_CODE":"US","TIME_SYSTEM":"UTC","SITE":"AFETR","RA_OF_ASC_NODE":"74.3070","MEAN_MOTION_DOT":"-0.00001235","APOAPSIS":"548.303","LAUNCH_DATE":"2020-10-24","FILE":"3637111","TLE_LINE1":"1 46790U 20074BD  22301.69419355 -.00001235  00000-0 -64031-4 0  9990","SEMIMAJOR_AXIS":"6925.337","OBJECT_NAME":"STARLINK-1931","MEAN_ELEMENT_THEORY":"SGP4","CENTER_NAME":"EARTH","REF_FRAME":"TEME","OBJECT_ID":"2020-074BD","RCS_SIZE":"LARGE","TLE_LINE2":"2 46790  53.0537  74.3070 0001590 113.1036 247.0120 15.06403735111588","MEAN_MOTION_DDOT":"0.0000000000000","ECCENTRICITY":"0.00015900","GP_ID":"216408011","DECAY_DATE":null,"INCLINATION":"53.0537","BSTAR":"-0.00006403100000","ELEMENT_SET_NO":"999","PERIAPSIS":"546.101","PERIOD":"95.592","OBJECT_TYPE":"PAYLOAD","CLASSIFICATION_TYPE":"U","MEAN_MOTION":"15.06403735","ARG_OF_PERICENTER":"113.1036","MEAN_ANOMALY":"247.0120","EPOCH":"2022-10-28T16:39:38.322720","NORAD_CAT_ID":"46790","EPHEMERIS_TYPE":"0","REV_AT_EPOCH":"11158"},{"SITE":"AFETR","TIME_SYSTEM":"UTC","COUNTRY_CODE":"US","CENTER_NAME":"EARTH","OBJECT_NAME":"STARLINK-1933","MEAN_ELEMENT_THEORY":"SGP4","SEMIMAJOR_AXIS":"6925.347","LAUNCH_DATE":"2020-10-24","TLE_LINE1":"1 46791U 20074BE  22301.64258713  .00000150  00000-0  28951-4 0  9999","FILE":"3636974","MEAN_MOTION_DOT":"0.00000150","RA_OF_ASC_NODE":"74.5414","APOAPSIS":"548.197","ELEMENT_SET_NO":"999","PERIAPSIS":"546.228","BSTAR":"0.00002895100000","INCLINATION":"53.0551","DECAY_DATE":null,"GP_ID":"216382749","TLE_LINE2":"2 46791  53.0551  74.5414 0001422 103.7208 256.3940 15.06400366111253","MEAN_MOTION_DDOT":"0.0000000000000","ECCENTRICITY":"0.00014220","OBJECT_ID":"2020-074BE","REF_FRAME":"TEME","RCS_SIZE":"LARGE","REV_AT_EPOCH":"11125","EPHEMERIS_TYPE":"0","ARG_OF_PERICENTER":"103.7208","NORAD_CAT_ID":"46791","EPOCH":"2022-10-28T15:25:19.528032","MEAN_ANOMALY":"256.3940","OBJECT_TYPE":"PAYLOAD","MEAN_MOTION":"15.06400366","CLASSIFICATION_TYPE":"U","PERIOD":"95.592"},{"CENTER_NAME":"EARTH","SEMIMAJOR_AXIS":"6925.322","OBJECT_NAME":"STARLINK-1934","MEAN_ELEMENT_THEORY":"SGP4","FILE":"3637111","TLE_LINE1":"1 46792U 20074BF  22301.66929875  .00001989  00000-0  15236-3 0  9998","LAUNCH_DATE":"2020-10-24","APOAPSIS":"548.104","RA_OF_ASC_NODE":"64.4234","MEAN_MOTION_DOT":"0.00001989","TIME_SYSTEM":"UTC","SITE":"AFETR","COUNTRY_CODE":"US","REV_AT_EPOCH":"11172","EPHEMERIS_TYPE":"0","EPOCH":"2022-10-28T16:03:47.412000","ARG_OF_PERICENTER":"95.7230","MEAN_ANOMALY":"264.3910","NORAD_CAT_ID":"46792","MEAN_MOTION":"15.06408787","CLASSIFICATION_TYPE":"U","OBJECT_TYPE":"PAYLOAD","PERIOD":"95.592","BSTAR":"0.00015236000000","INCLINATION":"53.0580","PERIAPSIS":"546.269","ELEMENT_SET_NO":"999","GP_ID":"216406511","DECAY_DATE":null,"ECCENTRICITY":"0.00013250","MEAN_MOTION_DDOT":"0.0000000000000","TLE_LINE2":"2 46792  53.0580  64.4234 0001325  95.7230 264.3910 15.06408787111724","RCS_SIZE":"LARGE","REF_FRAME":"TEME","OBJECT_ID":"2020-074BF"},{"MEAN_ELEMENT_THEORY":"SGP4","OBJECT_NAME":"STARLINK-1941","SEMIMAJOR_AXIS":"6925.324","CENTER_NAME":"EARTH","MEAN_MOTION_DOT":"0.00002808","RA_OF_ASC_NODE":"74.5973","APOAPSIS":"548.012","LAUNCH_DATE":"2020-10-24","TLE_LINE1":"1 46793U 20074BG  22301.63152990  .00002808  00000-0  20726-3 0  9993","FILE":"3636976","SITE":"AFETR","TIME_SYSTEM":"UTC","COUNTRY_CODE":"US","ARG_OF_PERICENTER":"100.4228","MEAN_ANOMALY":"259.6895","EPOCH":"2022-10-28T15:09:24.183360","NORAD_CAT_ID":"46793","REV_AT_EPOCH":"11125","EPHEMERIS_TYPE":"0","PERIOD":"95.592","OBJECT_TYPE":"PAYLOAD","MEAN_MOTION":"15.06408051","CLASSIFICATION_TYPE":"U","GP_ID":"216382599","DECAY_DATE":null,"PERIAPSIS":"546.365","ELEMENT_SET_NO":"999","INCLINATION":"53.0558","BSTAR":"0.00020726000000","OBJECT_ID":"2020-074BG","REF_FRAME":"TEME","RCS_SIZE":"LARGE","MEAN_MOTION_DDOT":"0.0000000000000","TLE_LINE2":"2 46793  53.0558  74.5973 0001189 100.4228 259.6895 15.06408051111252","ECCENTRICITY":"0.00011890"},{"DECAY_DATE":null,"GP_ID":"216407512","PERIAPSIS":"546.170","ELEMENT_SET_NO":"999","BSTAR":"0.00034810000000","INCLINATION":"53.0538","RCS_SIZE":"LARGE","OBJECT_ID":"2020-074BH","REF_FRAME":"TEME","ECCENTRICITY":"0.00014590","MEAN_MOTION_DDOT":"0.0000000000000","TLE_LINE2":"2 46794  53.0538  73.9624 0001459  87.6366 272.4790 15.06410668111609","ARG_OF_PERICENTER":"87.6366","EPOCH":"2022-10-28T18:31:04.753920","NORAD_CAT_ID":"46794","MEAN_ANOMALY":"272.4790","REV_AT_EPOCH":"11160","EPHEMERIS_TYPE":"0","PERIOD":"95.591","MEAN_MOTION":"15.06410668","CLASSIFICATION_TYPE":"U","OBJECT_TYPE":"PAYLOAD","SITE":"AFETR","TIME_SYSTEM":"UTC","COUNTRY_CODE":"US","OBJECT_NAME":"STARLINK-1942","MEAN_ELEMENT_THEORY":"SGP4","SEMIMAJOR_AXIS":"6925.316","CENTER_NAME":"EARTH","APOAPSIS":"548.191","MEAN_MOTION_DOT":"0.00004909","RA_OF_ASC_NODE":"73.9624","TLE_LINE1":"1 46794U 20074BH  22301.77158280  .00004909  00000-0  34810-3 0  9990","FILE":"3637111","LAUNCH_DATE":"2020-10-24"},{"ARG_OF_PERICENTER":"107.4480","EPOCH":"2022-10-28T14:44:10.916736","NORAD_CAT_ID":"46796","MEAN_ANOMALY":"252.6662","EPHEMERIS_TYPE":"0","REV_AT_EPOCH":"11139","PERIOD":"95.592","OBJECT_TYPE":"PAYLOAD","MEAN_MOTION":"15.06394484","CLASSIFICATION_TYPE":"U","GP_ID":"216382791","DECAY_DATE":null,"PERIAPSIS":"546.262","ELEMENT_SET_NO":"999","BSTAR":"0.00005034400000","INCLINATION":"53.0554","OBJECT_ID":"2020-074BK","REF_FRAME":"TEME","RCS_SIZE":"LARGE","TLE_LINE2":"2 46796  53.0554  64.6733 0001399 107.4480 252.6662 15.06394484111399","MEAN_MOTION_DDOT":"0.0000000000000","ECCENTRICITY":"0.00013990","OBJECT_NAME":"STARLINK-1944","MEAN_ELEMENT_THEORY":"SGP4","SEMIMAJOR_AXIS":"6925.365","CENTER_NAME":"EARTH","MEAN_MOTION_DOT":"0.00000468","RA_OF_ASC_NODE":"64.6733","APOAPSIS":"548.199","LAUNCH_DATE":"2020-10-24","TLE_LINE1":"1 46796U 20074BK  22301.61401524  .00000468  00000-0  50344-4 0  9994","FILE":"3636983","SITE":"AFETR","TIME_SYSTEM":"UTC","COUNTRY_CODE":"US"}];
